{"fetched_at":"2026-03-29T16:36:15Z","count":15609,"tles":[{"name":"STARLINK-5153","line1":"1 54088U 22136AP  26087.70766106 -.00000247  00000+0  25531-5 0  9999","line2":"2 54088  53.2166 248.8516 0001215  86.7849 273.3282 15.08841085189853","category":"Starlink"}]}